[{"OBJECT_NAME":"STARLINK-33868","OBJECT_ID":"2025-087G","EPOCH":"2026-03-09T15:34:38.033184","MEAN_MOTION":15.30145731,"ECCENTRICITY":0.0001494,"INCLINATION":53.1582,"RA_OF_ASC_NODE":219.7261,"ARG_OF_PERICENTER":65.8785,"MEAN_ANOMALY":294.2371,"EPHEMERIS_TYPE":0,"CLASSIFICATION_TYPE":"U","NORAD_CAT_ID":63703,"ELEMENT_SET_NO":999,"REV_AT_EPOCH":4919,"BSTAR":-0.00042921,"MEAN_MOTION_DOT":-0.00013028,"MEAN_MOTION_DDOT":0},{"OBJECT_NAME":"ELECTRON KICK STAGE R\/B","OBJECT_ID":"2024-047B","EPOCH":"2026-03-09T21:11:54.433824","MEAN_MOTION":15.27307897,"ECCENTRICITY":0.00092426,"INCLINATION":97.6338,"RA_OF_ASC_NODE":46.9382,"ARG_OF_PERICENTER":20.6031,"MEAN_ANOMALY":339.5579,"EPHEMERIS_TYPE":0,"CLASSIFICATION_TYPE":"U","NORAD_CAT_ID":59225,"ELEMENT_SET_NO":999,"REV_AT_EPOCH":10999,"BSTAR":0.00091229405,"MEAN_MOTION_DOT":0.00024409,"MEAN_MOTION_DDOT":0}]
